STARLINK-3702           
1 52100U 22029N   26068.33104743 -.00000934  00000+0 -40591-4 0  9990
2 52100  53.2170  90.7311 0001297  90.6828 269.4313 15.08842099220605
LEMUR-2-AHMED-ASRAR     
1 60576U 24149DN  26068.73265438  .00013045  00000+0  79773-3 0  9992
2 60576  97.7021 152.9847 0001633  18.5035 341.6253 15.10376432 85541
